STRIX-4                 
1 60352U 24137A   26068.65404516  .00020530  00000+0  71820-3 0  9996
2 60352  43.0134 129.8162 0016840   5.2738 354.8289 15.29026223 88766
STARLINK-34228          
1 64171U 25113B   26068.32418196  .00023985  00000+0  81915-3 0  9990
2 64171  53.1595  92.5130 0001043  94.1123 265.9997 15.30207314 45010
